ALOS-2                  
1 39766U 14029A   26084.95054405  .00001353  00000+0  18824-3 0  9996
2 39766  97.9186 183.3107 0001876 105.5233 254.6186 14.79434032639273
YAOGAN-29               
1 41038U 15069A   26084.98769469  .00000851  00000+0  11135-3 0  9992
2 41038  98.0123 113.4595 0000724  10.9618 349.1611 14.83014741558294
ASTRO-H (HITOMI)        
1 41337U 16012A   26084.82870470  .00002915  00000+0  16875-3 0  9990
2 41337  30.9988 252.3908 0009604 133.8904 226.2529 15.10103060554675
HXMT (HUIYAN)           
1 42758U 17034A   26084.96891256  .00004792  00000+0  24225-3 0  9996
2 42758  43.0145 286.1536 0032273 335.3130  24.6173 15.17666618485019
SAOCOM 1A               
1 43641U 18076A   26084.96304875  .00001001  00000+0  13230-3 0  9995
2 43641  97.8906 272.9060 0001523  84.5150 275.6237 14.82160151403771
H-2A R/B                
1 43682U 18084L   26084.50466467  .00020811  00000+0  48502-3 0  9995
2 43682  98.8710 305.2796 0024066 330.4775  29.5107 15.42005973408212
SAOCOM 1B               
1 46265U 20059A   26084.92676931  .00000449  00000+0  62971-4 0  9997
2 46265  97.8904 271.9680 0001473  85.7518 274.3863 14.82152577301159
CSS (TIANHE)            
1 48274U 21035A   26084.83710235  .00022588  00000+0  25952-3 0  9995
2 48274  41.4667 109.8476 0004448  22.3282 337.7750 15.61486977280139
COSMOS 2550             
1 48865U 21056A   26084.75401044 -.00000185  00000+0  21272-6 0  9994
2 48865  67.1434 352.2897 0008310 269.6174  90.4028 15.33836515265928
CZ-2C R/B               
1 52794U 22058K   26084.77221419  .00037524  00000+0  52496-3 0  9996
2 52794  50.1868 235.4871 0041526 269.6026  90.0186 15.55377493212633
CZ-2C R/B               
1 54039U 22132E   26084.95774356  .00043664  00000+0  47059-3 0  9997
2 54039  97.2964  88.7871 0018326  38.7235 321.5334 15.63359137192913
GSLV R/B                
1 54149U 22138AN  26084.49817565  .00002746  00000+0  23563-3 0  9994
2 54149  87.3865 161.0707 0024109  94.4790 265.9197 14.96876968186292
