CCSDS_OMM_VERS = 2.0
CREATION_DATE  = 
ORIGINATOR     = 

OBJECT_NAME    = ALOS-2
OBJECT_ID      = 2014-029A
CENTER_NAME    = EARTH
REF_FRAME      = TEME
TIME_SYSTEM    = UTC
MEAN_ELEMENT_THEORY = SGP/SGP4

EPOCH          = 2026-03-25T22:48:47.005920
MEAN_MOTION    = 14.79434032
ECCENTRICITY   = .00018768
INCLINATION    = 97.9186
RA_OF_ASC_NODE = 183.3107
ARG_OF_PERICENTER = 105.5233
MEAN_ANOMALY   = 254.6186

EPHEMERIS_TYPE = 0
CLASSIFICATION_TYPE = U
NORAD_CAT_ID   = 39766
ELEMENT_SET_NO = 999
REV_AT_EPOCH   = 63927
BSTAR          = .188239E-3
MEAN_MOTION_DOT = .1353E-4
MEAN_MOTION_DDOT = 0

CCSDS_OMM_VERS = 2.0
CREATION_DATE  = 
ORIGINATOR     = 

OBJECT_NAME    = YAOGAN-29
OBJECT_ID      = 2015-069A
CENTER_NAME    = EARTH
REF_FRAME      = TEME
TIME_SYSTEM    = UTC
MEAN_ELEMENT_THEORY = SGP/SGP4

EPOCH          = 2026-03-25T23:42:16.821216
MEAN_MOTION    = 14.83014741
ECCENTRICITY   = .00007244
INCLINATION    = 98.0123
RA_OF_ASC_NODE = 113.4595
ARG_OF_PERICENTER = 10.9618
MEAN_ANOMALY   = 349.1611

EPHEMERIS_TYPE = 0
CLASSIFICATION_TYPE = U
NORAD_CAT_ID   = 41038
ELEMENT_SET_NO = 999
REV_AT_EPOCH   = 55829
BSTAR          = .11135499E-3
MEAN_MOTION_DOT = .851E-5
MEAN_MOTION_DDOT = 0

CCSDS_OMM_VERS = 2.0
CREATION_DATE  = 
ORIGINATOR     = 

OBJECT_NAME    = ASTRO-H (HITOMI)
OBJECT_ID      = 2016-012A
CENTER_NAME    = EARTH
REF_FRAME      = TEME
TIME_SYSTEM    = UTC
MEAN_ELEMENT_THEORY = SGP/SGP4

EPOCH          = 2026-03-25T19:53:20.086080
MEAN_MOTION    = 15.10103060
ECCENTRICITY   = .00096049
INCLINATION    = 30.9988
RA_OF_ASC_NODE = 252.3908
ARG_OF_PERICENTER = 133.8904
MEAN_ANOMALY   = 226.2529

EPHEMERIS_TYPE = 0
CLASSIFICATION_TYPE = U
NORAD_CAT_ID   = 41337
ELEMENT_SET_NO = 999
REV_AT_EPOCH   = 55467
BSTAR          = .16875466E-3
MEAN_MOTION_DOT = .2915E-4
MEAN_MOTION_DDOT = 0

CCSDS_OMM_VERS = 2.0
CREATION_DATE  = 
ORIGINATOR     = 

OBJECT_NAME    = HXMT (HUIYAN)
OBJECT_ID      = 2017-034A
CENTER_NAME    = EARTH
REF_FRAME      = TEME
TIME_SYSTEM    = UTC
MEAN_ELEMENT_THEORY = SGP/SGP4

EPOCH          = 2026-03-25T23:15:14.045184
MEAN_MOTION    = 15.17666618
ECCENTRICITY   = .00322734
INCLINATION    = 43.0145
RA_OF_ASC_NODE = 286.1536
ARG_OF_PERICENTER = 335.3130
MEAN_ANOMALY   = 24.6173

EPHEMERIS_TYPE = 0
CLASSIFICATION_TYPE = U
NORAD_CAT_ID   = 42758
ELEMENT_SET_NO = 999
REV_AT_EPOCH   = 48501
BSTAR          = .2422498E-3
MEAN_MOTION_DOT = .4792E-4
MEAN_MOTION_DDOT = 0

CCSDS_OMM_VERS = 2.0
CREATION_DATE  = 
ORIGINATOR     = 

OBJECT_NAME    = SAOCOM 1A
OBJECT_ID      = 2018-076A
CENTER_NAME    = EARTH
REF_FRAME      = TEME
TIME_SYSTEM    = UTC
MEAN_ELEMENT_THEORY = SGP/SGP4

EPOCH          = 2026-03-25T23:06:47.412000
MEAN_MOTION    = 14.82160151
ECCENTRICITY   = .00015236
INCLINATION    = 97.8906
RA_OF_ASC_NODE = 272.9060
ARG_OF_PERICENTER = 84.5150
MEAN_ANOMALY   = 275.6237

EPHEMERIS_TYPE = 0
CLASSIFICATION_TYPE = U
NORAD_CAT_ID   = 43641
ELEMENT_SET_NO = 999
REV_AT_EPOCH   = 40377
BSTAR          = .13229785E-3
MEAN_MOTION_DOT = .1001E-4
MEAN_MOTION_DDOT = 0

CCSDS_OMM_VERS = 2.0
CREATION_DATE  = 
ORIGINATOR     = 

OBJECT_NAME    = H-2A R/B
OBJECT_ID      = 2018-084L
CENTER_NAME    = EARTH
REF_FRAME      = TEME
TIME_SYSTEM    = UTC
MEAN_ELEMENT_THEORY = SGP/SGP4

EPOCH          = 2026-03-25T12:06:43.027488
MEAN_MOTION    = 15.42005973
ECCENTRICITY   = .00240666
INCLINATION    = 98.8710
RA_OF_ASC_NODE = 305.2796
ARG_OF_PERICENTER = 330.4775
MEAN_ANOMALY   = 29.5107

EPHEMERIS_TYPE = 0
CLASSIFICATION_TYPE = U
NORAD_CAT_ID   = 43682
ELEMENT_SET_NO = 999
REV_AT_EPOCH   = 40821
BSTAR          = .4850234E-3
MEAN_MOTION_DOT = .20811E-3
MEAN_MOTION_DDOT = 0

CCSDS_OMM_VERS = 2.0
CREATION_DATE  = 
ORIGINATOR     = 

OBJECT_NAME    = SAOCOM 1B
OBJECT_ID      = 2020-059A
CENTER_NAME    = EARTH
REF_FRAME      = TEME
TIME_SYSTEM    = UTC
MEAN_ELEMENT_THEORY = SGP/SGP4

EPOCH          = 2026-03-25T22:14:32.868384
MEAN_MOTION    = 14.82152577
ECCENTRICITY   = .00014736
INCLINATION    = 97.8904
RA_OF_ASC_NODE = 271.9680
ARG_OF_PERICENTER = 85.7518
MEAN_ANOMALY   = 274.3863

EPHEMERIS_TYPE = 0
CLASSIFICATION_TYPE = U
NORAD_CAT_ID   = 46265
ELEMENT_SET_NO = 999
REV_AT_EPOCH   = 30115
BSTAR          = .62971341E-4
MEAN_MOTION_DOT = .449E-5
MEAN_MOTION_DDOT = 0

CCSDS_OMM_VERS = 2.0
CREATION_DATE  = 
ORIGINATOR     = 

OBJECT_NAME    = CSS (TIANHE)
OBJECT_ID      = 2021-035A
CENTER_NAME    = EARTH
REF_FRAME      = TEME
TIME_SYSTEM    = UTC
MEAN_ELEMENT_THEORY = SGP/SGP4

EPOCH          = 2026-03-25T20:05:25.643040
MEAN_MOTION    = 15.61486977
ECCENTRICITY   = .00044481
INCLINATION    = 41.4667
RA_OF_ASC_NODE = 109.8476
ARG_OF_PERICENTER = 22.3282
MEAN_ANOMALY   = 337.7750

EPHEMERIS_TYPE = 0
CLASSIFICATION_TYPE = U
NORAD_CAT_ID   = 48274
ELEMENT_SET_NO = 999
REV_AT_EPOCH   = 28013
BSTAR          = .25951767E-3
MEAN_MOTION_DOT = .22588E-3
MEAN_MOTION_DDOT = 0

CCSDS_OMM_VERS = 2.0
CREATION_DATE  = 
ORIGINATOR     = 

OBJECT_NAME    = COSMOS 2550
OBJECT_ID      = 2021-056A
CENTER_NAME    = EARTH
REF_FRAME      = TEME
TIME_SYSTEM    = UTC
MEAN_ELEMENT_THEORY = SGP/SGP4

EPOCH          = 2026-03-25T18:05:46.502016
MEAN_MOTION    = 15.33836515
ECCENTRICITY   = .00083109
INCLINATION    = 67.1434
RA_OF_ASC_NODE = 352.2897
ARG_OF_PERICENTER = 269.6174
MEAN_ANOMALY   = 90.4028

EPHEMERIS_TYPE = 0
CLASSIFICATION_TYPE = U
NORAD_CAT_ID   = 48865
ELEMENT_SET_NO = 999
REV_AT_EPOCH   = 26592
BSTAR          = .212717E-6
MEAN_MOTION_DOT = -.185E-5
MEAN_MOTION_DDOT = 0

CCSDS_OMM_VERS = 2.0
CREATION_DATE  = 
ORIGINATOR     = 

OBJECT_NAME    = CZ-2C R/B
OBJECT_ID      = 2022-058K
CENTER_NAME    = EARTH
REF_FRAME      = TEME
TIME_SYSTEM    = UTC
MEAN_ELEMENT_THEORY = SGP/SGP4

EPOCH          = 2026-03-25T18:31:59.306016
MEAN_MOTION    = 15.55377493
ECCENTRICITY   = .00415265
INCLINATION    = 50.1868
RA_OF_ASC_NODE = 235.4871
ARG_OF_PERICENTER = 269.6026
MEAN_ANOMALY   = 90.0186

EPHEMERIS_TYPE = 0
CLASSIFICATION_TYPE = U
NORAD_CAT_ID   = 52794
ELEMENT_SET_NO = 999
REV_AT_EPOCH   = 21263
BSTAR          = .52496288E-3
MEAN_MOTION_DOT = .37524E-3
MEAN_MOTION_DDOT = 0

CCSDS_OMM_VERS = 2.0
CREATION_DATE  = 
ORIGINATOR     = 

OBJECT_NAME    = CZ-2C R/B
OBJECT_ID      = 2022-132E
CENTER_NAME    = EARTH
REF_FRAME      = TEME
TIME_SYSTEM    = UTC
MEAN_ELEMENT_THEORY = SGP/SGP4

EPOCH          = 2026-03-25T22:59:09.043584
MEAN_MOTION    = 15.63359137
ECCENTRICITY   = .00183262
INCLINATION    = 97.2964
RA_OF_ASC_NODE = 88.7871
ARG_OF_PERICENTER = 38.7235
MEAN_ANOMALY   = 321.5334

EPHEMERIS_TYPE = 0
CLASSIFICATION_TYPE = U
NORAD_CAT_ID   = 54039
ELEMENT_SET_NO = 999
REV_AT_EPOCH   = 19291
BSTAR          = .47059102E-3
MEAN_MOTION_DOT = .43664E-3
MEAN_MOTION_DDOT = 0

CCSDS_OMM_VERS = 2.0
CREATION_DATE  = 
ORIGINATOR     = 

OBJECT_NAME    = GSLV R/B
OBJECT_ID      = 2022-138AN
CENTER_NAME    = EARTH
REF_FRAME      = TEME
TIME_SYSTEM    = UTC
MEAN_ELEMENT_THEORY = SGP/SGP4

EPOCH          = 2026-03-25T11:57:22.376160
MEAN_MOTION    = 14.96876968
ECCENTRICITY   = .0024109
INCLINATION    = 87.3865
RA_OF_ASC_NODE = 161.0707
ARG_OF_PERICENTER = 94.4790
MEAN_ANOMALY   = 265.9197

EPHEMERIS_TYPE = 0
CLASSIFICATION_TYPE = U
NORAD_CAT_ID   = 54149
ELEMENT_SET_NO = 999
REV_AT_EPOCH   = 18629
BSTAR          = .23562616E-3
MEAN_MOTION_DOT = .2746E-4
MEAN_MOTION_DDOT = 0

